CCSDS_OMM_VERS = 2.0
CREATION_DATE  = 
ORIGINATOR     = 

OBJECT_NAME    = XRISM
OBJECT_ID      = 2023-137A
CENTER_NAME    = EARTH
REF_FRAME      = TEME
TIME_SYSTEM    = UTC
MEAN_ELEMENT_THEORY = SGP/SGP4

EPOCH          = 2026-04-03T12:49:17.119488
MEAN_MOTION    = 15.11805272
ECCENTRICITY   = .0007841
INCLINATION    = 31.0011
RA_OF_ASC_NODE = 122.9307
ARG_OF_PERICENTER = 288.5773
MEAN_ANOMALY   = 71.4014

EPHEMERIS_TYPE = 0
CLASSIFICATION_TYPE = U
NORAD_CAT_ID   = 57800
ELEMENT_SET_NO = 999
REV_AT_EPOCH   = 14155
BSTAR          = .51504E-3
MEAN_MOTION_DOT = .9122E-4
MEAN_MOTION_DDOT = 0

CCSDS_OMM_VERS = 2.0
CREATION_DATE  = 
ORIGINATOR     = 

OBJECT_NAME    = ACS3
OBJECT_ID      = 2024-077B
CENTER_NAME    = EARTH
REF_FRAME      = TEME
TIME_SYSTEM    = UTC
MEAN_ELEMENT_THEORY = SGP/SGP4

EPOCH          = 2026-04-03T16:31:54.561216
MEAN_MOTION    = 13.90830670
ECCENTRICITY   = .0073394
INCLINATION    = 97.1954
RA_OF_ASC_NODE = 29.1827
ARG_OF_PERICENTER = 20.1741
MEAN_ANOMALY   = 340.2298

EPHEMERIS_TYPE = 0
CLASSIFICATION_TYPE = U
NORAD_CAT_ID   = 59588
ELEMENT_SET_NO = 999
REV_AT_EPOCH   = 9767
BSTAR          = .21129E-1
MEAN_MOTION_DOT = .27071E-3
MEAN_MOTION_DDOT = 0

CCSDS_OMM_VERS = 2.0
CREATION_DATE  = 
ORIGINATOR     = 

OBJECT_NAME    = HTV-X1
OBJECT_ID      = 2025-241A
CENTER_NAME    = EARTH
REF_FRAME      = TEME
TIME_SYSTEM    = UTC
MEAN_ELEMENT_THEORY = SGP/SGP4

EPOCH          = 2026-04-03T19:43:39.982656
MEAN_MOTION    = 15.32523004
ECCENTRICITY   = .0007281
INCLINATION    = 51.6360
RA_OF_ASC_NODE = 311.9230
ARG_OF_PERICENTER = 269.6353
MEAN_ANOMALY   = 90.3794

EPHEMERIS_TYPE = 0
CLASSIFICATION_TYPE = U
NORAD_CAT_ID   = 66174
ELEMENT_SET_NO = 999
REV_AT_EPOCH   = 2479
BSTAR          = .266E-3
MEAN_MOTION_DOT = .8122E-4
MEAN_MOTION_DDOT = 0

CCSDS_OMM_VERS = 2.0
CREATION_DATE  = 
ORIGINATOR     = 

OBJECT_NAME    = SZ-21 MODULE
OBJECT_ID      = 2025-246C
CENTER_NAME    = EARTH
REF_FRAME      = TEME
TIME_SYSTEM    = UTC
MEAN_ELEMENT_THEORY = SGP/SGP4

EPOCH          = 2026-04-03T13:41:59.326656
MEAN_MOTION    = 15.70603524
ECCENTRICITY   = .000297
INCLINATION    = 41.4748
RA_OF_ASC_NODE = 49.9717
ARG_OF_PERICENTER = 226.3876
MEAN_ANOMALY   = 133.6720

EPHEMERIS_TYPE = 0
CLASSIFICATION_TYPE = U
NORAD_CAT_ID   = 66515
ELEMENT_SET_NO = 999
REV_AT_EPOCH   = 2198
BSTAR          = .44364E-3
MEAN_MOTION_DOT = .56445E-3
MEAN_MOTION_DDOT = 0

